#dP2021 11 27  0  0  0.00000000      96 __u+U ITR00 FIT  IAC
## 2185 518400.00000000   900.00000000 59545 0.0000000000000
+  113   C06C07C08C09C10C11C12C13C14C16C19C20C21C22C23C24C25
+        C26C27C28C29C30C32C33C34C35C36C37C38C39C40C41C42C43
+        C44C45C46E01E02E03E04E05E07E08E09E11E12E13E14E15E18
+        E19E21E24E25E26E27E30E31E33E36G01G02G03G04G05G06G07
+        G08G09G10G12G13G14G15G16G17G18G19G20G21G22G23G24G25
+        G26G27G28G29G30G31G32R01R02R03R04R05R07R08R09R11R12
+        R13R14R15R16R17R18R19R20R21R22R24  0  0  0  0  0  0
++         8  8  8  8  7  8  7  9  7  7  6  6  7  7  8  5  7
++         6  7  6  7  7  8  7  7  6  6  6  9  8  8  8  8  8
++         6  6  6  7  6  5  6  6  6  6  6  6  7  7  7  7  7
++         6  8  7  8  6  6  7  8  6  7  6  6  6  6  6  6  6
++         6  5  6  6  6  6  7  6  5  7  7  5  5  6  6  6  6
++         5  6  5  6  5  7  6  6  5  7  7  6  8  5  8  6  6
++         6  6  5  7  7  6  7  8  6  7  7  0  0  0  0  0  0
%c M  cc GPS ccc cccc cccc cccc cccc ccccc ccccc ccccc ccccc
%c cc cc ccc ccc cccc cccc cccc cccc ccccc ccccc ccccc ccccc
%f  0.0000000  0.000000000  0.00000000000  0.000000000000000
%f  0.0000000  0.000000000  0.00000000000  0.000000000000000
%i    0    0    0    0      0      0      0      0         0
%i    0    0    0    0      0      0      0      0         0
/* INFORMATION & ANALYSIS CENTER (IAC)      ULTRA-RAPID DATA
/* S/V CLOCKS ARE ALIGNED TO GNSS TIME                      
/* G:C1WC2W R:C1PC2P E:C1XC5X C:C2IC6I J:C1CC2S             
/* PCV:IGS14_2178 OL/AL:FES2004  NONE     YN ORB:CoN CLK:CoN
*  2021 11 27 19  0  0.00000000
PC06  -9420.163469  23506.386543 -33759.770855    550.658595
PC07 -15365.199749  38498.916211   7392.463161    187.957995
PC08   1453.239957  34852.448784  23808.910200   -732.462026
PC09  -1882.799441  24340.762736 -34052.755115   -302.068627
PC10  -8116.166266  38501.384697  14779.036204     14.148746
PC11  27311.903718   5457.390852   2149.684353    715.773758
PC12  16444.611638  14006.200306  17724.224441    719.018804
PC13   5253.222239  37291.762978  19369.341362    488.615062
PC14  18362.982709   -292.378110 -21011.325767    517.891596
PC16 -15367.299501  21510.109304 -32773.234356   -706.455578
PC19 -20854.736074  10089.271447  15566.220057    929.810153
PC20 -13875.120059  -7812.422386  22921.563862   -791.678860
PC21  -1867.579951  22072.829131 -16955.420141   -940.761195
PC22 -16029.831008  22801.772130  -1137.245518   -971.664641
PC23   7216.389801 -18708.979293  19407.092181   -963.687169
PC24  16829.263373  19256.810403  11198.083680   -956.751176
PC25  16950.176946   -934.165438  22146.378104   -818.362410
PC26   8084.814960  26298.206606  -4802.738547    815.770119
PC27  -6657.682295 -16112.467527 -21807.630511    636.268498
PC28  14352.663735 -12351.020804 -20495.037282      2.317899
PC29 -26891.819966   2332.978925   7077.145057    480.056288
PC30 -23719.345718  -9892.220811 -10900.332409    487.350759
PC32   1751.824616 -22135.163237  16911.831167   -959.176738
PC33  20808.356408 -10131.212845 -15602.228699   -966.820911
PC34  24210.496722   9480.352630  10104.224818   -527.323900
PC35 -14469.383024  12693.480918  20213.938321     20.357983
PC36 -17083.406606     66.842740 -22040.041105   -815.621598
PC37  -6717.308614 -26446.238776   5795.215414   -899.808849
PC38  -6557.768361  30007.820002  28980.792279    192.555109
PC39 -19991.564420  20900.585255 -30754.644993     34.146635
PC40 -22767.215616  35145.295895   4225.238894    221.535076
PC41  16145.235817 -22743.244434    797.133333   -915.484805
PC42  13319.900304   8670.558634 -22902.619613   -938.597828
PC43  27067.531427  -1854.303483  -6492.032347   -958.008529
PC44   6920.029971  16007.347875  21774.554457    479.829689
PC45  -6930.280902  18870.574403 -19364.276782    612.141424
PC46 -17156.023349 -18207.390184 -12315.668573    -30.951116
PE01  14660.477938 -17229.941703  19088.055718   -526.143220
PE02 -14603.147676  17408.116275 -18979.158468    263.142031
PE03 -25118.393827  15005.710744  -4457.730126   -500.471279
PE04   9617.699815 -19808.135144  19777.686118   -908.775328
PE05 -26162.210765   1289.684854  13780.656769   -230.714717
PE07  11953.109965  13001.399100 -23758.565441   -611.613333
PE08  -9153.028021  19719.339247 -20092.561538   5898.056600
PE09 -12137.053175 -12702.924807  23815.062184   5449.073533
PE11 -19639.383073 -20476.169353  -8451.711795   5002.716268
PE12  -1247.199669 -18935.694592 -22714.639155   4888.742685
PE13  19305.862514  20548.563220   9026.290496    424.129999
PE14  17068.471439 -19896.266972 -19042.230166  -1655.126843
PE15   1239.610631  18839.105533  22809.274572    778.513766
PE18 -14262.105433  13712.141271  12793.617035  -1819.802015
PE19  26194.969123 -13615.063151   2111.448524    438.214623
PE21  16300.126642   3528.895192  24458.677801   -702.033948
PE24  -7960.555446 -24134.442080 -15159.195503  -1249.441999
PE25 -16258.320112  -3784.909629 -24433.281428   -555.000459
PE26  25863.823510   9420.010693 -10891.960983   -504.975059
PE27   8674.924000  23348.146627  16012.851421   -174.377331
PE30  -4891.603899  29057.935851  -2931.091800    -64.551825
PE31   4004.419458 -29268.272148   1804.157171   -488.623443
PE33  17496.001058  -6024.846239 -23094.086745   -462.071086
PE36 -25938.646258 -10159.946240  10012.912657   -296.053252
PG01 -21487.820610 -12907.670041   9006.691343    499.174682
PG02  12097.300112  20756.994783  11881.863072   -643.673641
PG03 -13955.641028  -5566.534912  21802.746734    -24.827831
PG04 -24138.534036  -1916.737648  10999.900509   -200.756966
PG05   7384.237723  19861.598770 -16083.391542    -62.507430
PG06  -2213.664557  16803.003383  20500.033066    128.386535
PG07 -18113.910566   1377.940886 -19166.472804    283.800815
PG08 -16503.078895  -8719.073571 -19034.195975    -45.856521
PG09 -25453.887725   7638.817672    181.845382   -361.298003
PG10  11627.291236 -21975.209165  -8792.299626   -255.751091
PG12  12714.284860   8394.219757  21515.097084   -132.559645
PG13   8537.548659  13596.233547 -21338.334527    221.001175
PG14 -12857.629479  21450.540863  -8858.722183    -45.787721
PG15  17938.578003   7516.123861 -18626.106714   -103.318891
PG16  -2837.812865 -21990.665700 -14517.193636   -431.297814
PG17 -19218.025050  13246.696927  13138.786598    539.719659
PG18  17029.189127  -2530.428224 -20256.932283    288.863392
PG19 -11761.018382  14629.087452  18458.330996     84.851949
PG20   2076.870903  25900.503628  -6156.988793    517.912387
PG21 -21210.166711 -16498.791986   1190.548931    152.232231
PG22 -12169.647593 -14201.395605  19105.361994   -454.678877
PG23  15292.877730 -12577.688114 -17680.309440     28.100354
PG24  22109.628933  14463.712010   4108.425655    270.943747
PG25  15887.730464  -4370.910966  20503.618021    247.198521
PG26   4420.549279 -26007.465180   -976.743912    159.555356
PG27  -5700.518778 -13958.796267 -22062.817528   -224.349378
PG28  -9360.763132  24946.170292   -784.912502    454.377192
PG29  26142.851237  -2639.268894   4059.289488   -446.430183
PG30 -10573.483353  11630.290724 -21335.543939   -494.873649
PG31    820.305358 -18278.653108  18967.573469   -152.279373
PG32  15207.647202 -15603.372855  15178.758687    -27.486007
PR01 -17749.404752   5369.847082  17505.311499     88.696673
PR02 -18649.619706  17434.846830   -819.366879    501.491273
PR03  -7572.963406  17736.534337 -16693.300081     47.185948
PR04   7394.796805   7892.772596 -23081.550839    116.242133
PR05  18327.738397  -6126.709314 -16630.270388     83.212887
PR07   6894.175527 -17459.074489  17274.869873    -39.648127
PR08  -7603.297265  -7899.104472  23079.336692    -62.238495
PR09   6234.020071 -15213.588497  19545.535906     25.821019
PR11 -10339.956428 -20504.104486 -11105.426975     47.583152
PR12 -11760.054473  -3674.089990 -22305.178777    281.930241
PR13  -6507.139002  14204.968929 -20178.369588    -64.081604
PR14   3006.257077  24719.505665  -5491.931523     71.470590
PR15  10336.221155  20167.108284  11733.742928     99.950246
PR16  11840.123789   2105.373390  22490.076131    -25.766005
PR17   3215.529084  11723.646685  22446.076701    478.649254
PR18  18698.713778  12003.174519  12507.332096     98.622897
PR19  24290.511602   7157.521693  -3108.210475   -168.583981
PR20  15373.295762  -3906.920848 -19950.704217    -60.133141
PR21  -4573.986112 -11919.059510 -22071.098063   -257.880868
PR22 -19384.196964 -11916.566398 -11628.307591   -147.878084
PR24 -14831.095494   4997.558395  20158.142470     68.764303
EOF
